[{"OBJECT_NAME":"STARLINK-34109","OBJECT_ID":"2025-092D","EPOCH":"2026-03-09T14:25:15.233664","MEAN_MOTION":15.27606412,"ECCENTRICITY":0.0001529,"INCLINATION":43.0043,"RA_OF_ASC_NODE":172.8325,"ARG_OF_PERICENTER":300.8176,"MEAN_ANOMALY":59.2525,"EPHEMERIS_TYPE":0,"CLASSIFICATION_TYPE":"U","NORAD_CAT_ID":63807,"ELEMENT_SET_NO":999,"REV_AT_EPOCH":4860,"BSTAR":0.00085823,"MEAN_MOTION_DOT":0.00023449,"MEAN_MOTION_DDOT":0},{"OBJECT_NAME":"GEOSCAN 6 (RS92S6)","OBJECT_ID":"2025-155D","EPOCH":"2026-03-09T21:52:39.201312","MEAN_MOTION":15.27985277,"ECCENTRICITY":0.00087677,"INCLINATION":97.4466,"RA_OF_ASC_NODE":37.2933,"ARG_OF_PERICENTER":153.7679,"MEAN_ANOMALY":206.4006,"EPHEMERIS_TYPE":0,"CLASSIFICATION_TYPE":"U","NORAD_CAT_ID":64879,"ELEMENT_SET_NO":999,"REV_AT_EPOCH":6559,"BSTAR":0.00053762354,"MEAN_MOTION_DOT":0.00014633,"MEAN_MOTION_DDOT":0}]
